{
  "type": "FeatureCollection",
  "features": [
    {
      "type": "Feature",
      "properties": {
        "norad_id": 66857,
        "name": "STARLINK-36083",
        "group": "last-30-days",
        "lat": 1.3105839832919268,
        "lon": -118.51137556902415,
        "alt_km": 369.3460122504621,
        "timestamp": "2025-12-22T11:33:19.155848+00:00",
        "meta_object_name": "STARLINK-36083",
        "meta_object_id": "2025-281K",
        "meta_epoch": "2025-12-22T04:00:01.998720",
        "meta_mean_motion": 15.67569822,
        "meta_eccentricity": 9.54e-05,
        "meta_inclination": 43.0007,
        "meta_ra_of_asc_node": 64.7826,
        "meta_arg_of_pericenter": 267.8549,
        "meta_mean_anomaly": 292.3645,
        "meta_ephemeris_type": 0,
        "meta_classification_type": "U",
        "meta_norad_cat_id": 66857,
        "meta_element_set_no": 999,
        "meta_rev_at_epoch": 290,
        "meta_bstar": -0.019525,
        "meta_mean_motion_dot": -0.01935048,
        "meta_mean_motion_ddot": 0,
        "tle_line1": "1 66857U 25281K   25356.16668980 -.01935048  00000+0 -19525-1 0  9999",
        "tle_line2": "2 66857  43.0007  64.7826 0000954 267.8549 292.3645 15.67569822  2903"
      },
      "geometry": {
        "type": "Point",
        "coordinates": [
          -118.51137556902415,
          1.3105839832919268
        ]
      }
    },
    {
      "type": "Feature",
      "properties": {
        "norad_id": 66858,
        "name": "STARLINK-35118",
        "group": "last-30-days",
        "lat": 0.00497575533611971,
        "lon": -117.114836093626,
        "alt_km": 369.4738602903499,
        "timestamp": "2025-12-22T11:33:19.155873+00:00",
        "meta_object_name": "STARLINK-35118",
        "meta_object_id": "2025-281L",
        "meta_epoch": "2025-12-22T04:00:01.998720",
        "meta_mean_motion": 15.67584714,
        "meta_eccentricity": 0.000105,
        "meta_inclination": 43.0007,
        "meta_ra_of_asc_node": 64.7777,
        "meta_arg_of_pericenter": 264.3203,
        "meta_mean_anomaly": 297.8059,
        "meta_ephemeris_type": 0,
        "meta_classification_type": "U",
        "meta_norad_cat_id": 66858,
        "meta_element_set_no": 999,
        "meta_rev_at_epoch": 269,
        "meta_bstar": -0.01971,
        "meta_mean_motion_dot": -0.01952312,
        "meta_mean_motion_ddot": 0,
        "tle_line1": "1 66858U 25281L   25356.16668980 -.01952312  00000+0 -19710-1 0  9999",
        "tle_line2": "2 66858  43.0007  64.7777 0001050 264.3203 297.8059 15.67584714  2698"
      },
      "geometry": {
        "type": "Point",
        "coordinates": [
          -117.114836093626,
          0.00497575533611971
        ]
      }
    },
    {
      "type": "Feature",
      "properties": {
        "norad_id": 66859,
        "name": "STARLINK-35646",
        "group": "last-30-days",
        "lat": -1.3014595427769482,
        "lon": -115.71686636270499,
        "alt_km": 369.61260428315745,
        "timestamp": "2025-12-22T11:33:19.155884+00:00",
        "meta_object_name": "STARLINK-35646",
        "meta_object_id": "2025-281M",
        "meta_epoch": "2025-12-22T04:00:01.998720",
        "meta_mean_motion": 15.67568004,
        "meta_eccentricity": 9.96e-05,
        "meta_inclination": 43.0005,
        "meta_ra_of_asc_node": 64.7733,
        "meta_arg_of_pericenter": 266.4987,
        "meta_mean_anomaly": 297.5535,
        "meta_ephemeris_type": 0,
        "meta_classification_type": "U",
        "meta_norad_cat_id": 66859,
        "meta_element_set_no": 999,
        "meta_rev_at_epoch": 290,
        "meta_bstar": -0.0195,
        "meta_mean_motion_dot": -0.01932707,
        "meta_mean_motion_ddot": 0,
        "tle_line1": "1 66859U 25281M   25356.16668980 -.01932707  00000+0 -19500-1 0  9993",
        "tle_line2": "2 66859  43.0005  64.7733 0000996 266.4987 297.5535 15.67568004  2903"
      },
      "geometry": {
        "type": "Point",
        "coordinates": [
          -115.71686636270499,
          -1.3014595427769482
        ]
      }
    },
    {
      "type": "Feature",
      "properties": {
        "norad_id": 66860,
        "name": "STARLINK-35987",
        "group": "last-30-days",
        "lat": -7.810333010227171,
        "lon": -108.67320720853812,
        "alt_km": 370.2550532412779,
        "timestamp": "2025-12-22T11:33:19.155896+00:00",
        "meta_object_name": "STARLINK-35987",
        "meta_object_id": "2025-281N",
        "meta_epoch": "2025-12-22T04:00:01.998720",
        "meta_mean_motion": 15.6757539,
        "meta_eccentricity": 0.0001043,
        "meta_inclination": 43.0004,
        "meta_ra_of_asc_node": 64.7494,
        "meta_arg_of_pericenter": 263.3599,
        "meta_mean_anomaly": 310.2797,
        "meta_ephemeris_type": 0,
        "meta_classification_type": "U",
        "meta_norad_cat_id": 66860,
        "meta_element_set_no": 999,
        "meta_rev_at_epoch": 290,
        "meta_bstar": -0.019658,
        "meta_mean_motion_dot": -0.01947144,
        "meta_mean_motion_ddot": 0,
        "tle_line1": "1 66860U 25281N   25356.16668980 -.01947144  00000+0 -19658-1 0  9990",
        "tle_line2": "2 66860  43.0004  64.7494 0001043 263.3599 310.2797 15.67575390  2906"
      },
      "geometry": {
        "type": "Point",
        "coordinates": [
          -108.67320720853812,
          -7.810333010227171
        ]
      }
    },
    {
      "type": "Feature",
      "properties": {
        "norad_id": 66861,
        "name": "STARLINK-35991",
        "group": "last-30-days",
        "lat": -3.914903333184674,
        "lon": -112.91163761824055,
        "alt_km": 369.8872003712131,
        "timestamp": "2025-12-22T11:33:19.155906+00:00",
        "meta_object_name": "STARLINK-35991",
        "meta_object_id": "2025-281P",
        "meta_epoch": "2025-12-22T04:00:01.998720",
        "meta_mean_motion": 15.67576925,
        "meta_eccentricity": 0.0001086,
        "meta_inclination": 43.0004,
        "meta_ra_of_asc_node": 64.764,
        "meta_arg_of_pericenter": 263.9764,
        "meta_mean_anomaly": 303.9124,
        "meta_ephemeris_type": 0,
        "meta_classification_type": "U",
        "meta_norad_cat_id": 66861,
        "meta_element_set_no": 999,
        "meta_rev_at_epoch": 290,
        "meta_bstar": -0.019685,
        "meta_mean_motion_dot": -0.0194964,
        "meta_mean_motion_ddot": 0,
        "tle_line1": "1 66861U 25281P   25356.16668980 -.01949640  00000+0 -19685-1 0  9994",
        "tle_line2": "2 66861  43.0004  64.7640 0001086 263.9764 303.9124 15.67576925  2905"
      },
      "geometry": {
        "type": "Point",
        "coordinates": [
          -112.91163761824055,
          -3.914903333184674
        ]
      }
    },
    {
      "type": "Feature",
      "properties": {
        "norad_id": 66862,
        "name": "STARLINK-35974",
        "group": "last-30-days",
        "lat": -2.608776311030609,
        "lon": -114.31618168626208,
        "alt_km": 369.71118480342466,
        "timestamp": "2025-12-22T11:33:19.155916+00:00",
        "meta_object_name": "STARLINK-35974",
        "meta_object_id": "2025-281Q",
        "meta_epoch": "2025-12-22T04:00:01.998720",
        "meta_mean_motion": 15.67566572,
        "meta_eccentricity": 0.0001142,
        "meta_inclination": 43.0007,
        "meta_ra_of_asc_node": 64.7684,
        "meta_arg_of_pericenter": 262.2421,
        "meta_mean_anomaly": 303.7324,
        "meta_ephemeris_type": 0,
        "meta_classification_type": "U",
        "meta_norad_cat_id": 66862,
        "meta_element_set_no": 999,
        "meta_rev_at_epoch": 280,
        "meta_bstar": -0.019508,
        "meta_mean_motion_dot": -0.01933433,
        "meta_mean_motion_ddot": 0,
        "tle_line1": "1 66862U 25281Q   25356.16668980 -.01933433  00000+0 -19508-1 0  9992",
        "tle_line2": "2 66862  43.0007  64.7684 0001142 262.2421 303.7324 15.67566572  2808"
      },
      "geometry": {
        "type": "Point",
        "coordinates": [
          -114.31618168626208,
          -2.608776311030609
        ]
      }
    },
    {
      "type": "Feature",
      "properties": {
        "norad_id": 66863,
        "name": "STARLINK-36134",
        "group": "last-30-days",
        "lat": -5.215627446807862,
        "lon": -111.50629829950026,
        "alt_km": 370.0813579425794,
        "timestamp": "2025-12-22T11:33:19.155926+00:00",
        "meta_object_name": "STARLINK-36134",
        "meta_object_id": "2025-281R",
        "meta_epoch": "2025-12-22T04:00:01.998720",
        "meta_mean_motion": 15.67571758,
        "meta_eccentricity": 0.0001035,
        "meta_inclination": 43.0004,
        "meta_ra_of_asc_node": 64.7593,
        "meta_arg_of_pericenter": 267.3872,
        "meta_mean_anomaly": 302.4189,
        "meta_ephemeris_type": 0,
        "meta_classification_type": "U",
        "meta_norad_cat_id": 66863,
        "meta_element_set_no": 999,
        "meta_rev_at_epoch": 290,
        "meta_bstar": -0.019606,
        "meta_mean_motion_dot": -0.01942284,
        "meta_mean_motion_ddot": 0,
        "tle_line1": "1 66863U 25281R   25356.16668980 -.01942284  00000+0 -19606-1 0  9996",
        "tle_line2": "2 66863  43.0004  64.7593 0001035 267.3872 302.4189 15.67571758  2900"
      },
      "geometry": {
        "type": "Point",
        "coordinates": [
          -111.50629829950026,
          -5.215627446807862
        ]
      }
    }
  ]
}